$$SOE
2460721.500000000, A.D. 2025-Feb-15 00:00:00.0000, -2.003728781118849E+08, 3.588084970949555E+08, -3.434838726688412E+07,
2460728.500000000, A.D. 2025-Feb-22 00:00:00.0000, -2.086560626014725E+08, 3.538782775581368E+08, -3.457176269956864E+07,
2460735.500000000, A.D. 2025-Mar-01 00:00:00.0000, -2.167945846091509E+08, 3.487029467261558E+08, -3.477117616750494E+07,
2460742.500000000, A.D. 2025-Mar-08 00:00:00.0000, -2.247825936063384E+08, 3.432857476485506E+08, -3.494645606049028E+07,
2460749.500000000, A.D. 2025-Mar-15 00:00:00.0000, -2.326142578885668E+08, 3.376299983931130E+08, -3.509743646837862E+07,
2460756.500000000, A.D. 2025-Mar-22 00:00:00.0000, -2.402837636615832E+08, 3.317390953816324E+08, -3.522395691313876E+07,
2460763.500000000, A.D. 2025-Mar-29 00:00:00.0000, -2.477853128966099E+08, 3.256165147316120E+08, -3.532586241451900E+07,
2460770.500000000, A.D. 2025-Apr-05 00:00:00.0000, -2.551131196343657E+08, 3.192658147445115E+08, -3.540300366317818E+07,
2460777.500000000, A.D. 2025-Apr-12 00:00:00.0000, -2.622614066700479E+08, 3.126906396515652E+08, -3.545523711774659E+07,
2460784.500000000, A.D. 2025-Apr-19 00:00:00.0000, -2.692244028108996E+08, 3.058947237419686E+08, -3.548242508165815E+07,
2460791.500000000, A.D. 2025-Apr-26 00:00:00.0000, -2.759963404405609E+08, 2.988818956753677E+08, -3.548443580189903E+07,
2460798.500000000, A.D. 2025-May-03 00:00:00.0000, -2.825714532844661E+08, 2.916560830036898E+08, -3.546114359938121E+07,
2460805.500000000, A.D. 2025-May-10 00:00:00.0000, -2.889439743571551E+08, 2.842213169180160E+08, -3.541242903392799E+07,
2460812.500000000, A.D. 2025-May-17 00:00:00.0000, -2.951081340655214E+08, 2.765817371873899E+08, -3.533817911180478E+07,
2460819.500000000, A.D. 2025-May-24 00:00:00.0000, -3.010581583060993E+08, 2.687415972436414E+08, -3.523828755748400E+07,
2460826.500000000, A.D. 2025-May-31 00:00:00.0000, -3.067882661520788E+08, 2.607052697320562E+08, -3.511265516388156E+07,
2460833.500000000, A.D. 2025-Jun-07 00:00:00.0000, -3.122926675468009E+08, 2.524772537418453E+08, -3.496119008737073E+07,
2460840.500000000, A.D. 2025-Jun-14 00:00:00.0000, -3.175655633875282E+08, 2.440621830607401E+08, -3.478380792742202E+07,
2460847.500000000, A.D. 2025-Jun-21 00:00:00.0000, -3.226011468015063E+08, 2.354648321955617E+08, -3.458043197202596E+07,
2460854.500000000, A.D. 2025-Jun-28 00:00:00.0000, -3.273936025031876E+08, 2.266901219325652E+08, -3.435099375244380E+07,
2460861.500000000, A.D. 2025-Jul-05 00:00:00.0000, -3.319371057734872E+08, 2.177431266016826E+08, -3.409543359359397E+07,
2460868.500000000, A.D. 2025-Jul-12 00:00:00.0000, -3.362258222811571E+08, 2.086290822515837E+08, -3.381370111971383E+07,
2460875.500000000, A.D. 2025-Jul-19 00:00:00.0000, -3.402539085856153E+08, 1.993533951731706E+08, -3.350575578237560E+07,
2460882.500000000, A.D. 2025-Jul-26 00:00:00.0000, -3.440155131421756E+08, 1.899216507257906E+08, -3.317156743711496E+07,
2460889.500000000, A.D. 2025-Aug-02 00:00:00.0000, -3.475047777787974E+08, 1.803396224978276E+08, -3.281111697546334E+07,
2460896.500000000, A.D. 2025-Aug-09 00:00:00.0000, -3.507158396591743E+08, 1.706132817966174E+08, -3.242439701852250E+07,
2460903.500000000, A.D. 2025-Aug-16 00:00:00.0000, -3.536428336971648E+08, 1.607488074133359E+08, -3.201141268727138E+07,
2460910.500000000, A.D. 2025-Aug-23 00:00:00.0000, -3.562798951756538E+08, 1.507525956870366E+08, -3.157218247816668E+07,
2460917.500000000, A.D. 2025-Aug-30 00:00:00.0000, -3.586211622906081E+08, 1.406312715876447E+08, -3.110673921900164E+07,
2460924.500000000, A.D. 2025-Sep-06 00:00:00.0000, -3.606607800935686E+08, 1.303917018213661E+08, -3.061513089667582E+07,
2460931.500000000, A.D. 2025-Sep-13 00:00:00.0000, -3.623929075660834E+08, 1.200410074776310E+08, -3.009742141088155E+07,
2460938.500000000, A.D. 2025-Sep-20 00:00:00.0000, -3.638117246191329E+08, 1.095865745749695E+08, -2.955369169256149E+07,
2460945.500000000, A.D. 2025-Sep-27 00:00:00.0000, -3.649114380253665E+08, 9.903606561296947E+07, -2.898404103291745E+07,
2460952.500000000, A.D. 2025-Oct-04 00:00:00.0000, -3.656862883766812E+08, 8.839743265756695E+07, -2.838858839781819E+07,
2460959.500000000, A.D. 2025-Oct-11 00:00:00.0000, -3.661305585275888E+08, 7.767893100329617E+07, -2.776747377581584E+07,
2460966.500000000, A.D. 2025-Oct-18 00:00:00.0000, -3.662385833317403E+08, 6.688913312223879E+07, -2.712085961331996E+07,
2460973.500000000, A.D. 2025-Oct-25 00:00:00.0000, -3.660047606259111E+08, 5.603694288831853E+07, -2.644893235303912E+07,
2460980.500000000, A.D. 2025-Nov-01 00:00:00.0000, -3.654235635193498E+08, 4.513161006113382E+07, -2.575190408142107E+07,
2460987.500000000, A.D. 2025-Nov-08 00:00:00.0000, -3.644895540560271E+08, 3.418274495478124E+07, -2.503001429357523E+07,
2460994.500000000, A.D. 2025-Nov-15 00:00:00.0000, -3.631973982121729E+08, 2.320033317585791E+07, -2.428353179692412E+07,
2461001.500000000, A.D. 2025-Nov-22 00:00:00.0000, -3.615418819481550E+08, 1.219475057997812E+07, -2.351275677639514E+07,
2461008.500000000, A.D. 2025-Nov-29 00:00:00.0000, -3.595179286004053E+08, 1.176779499302106E+06, -2.271802291897262E+07,
2461015.500000000, A.D. 2025-Dec-06 00:00:00.0000, -3.571206200310597E+08, -9.842373990349492E+06, -2.189969940435861E+07,
2461022.500000000, A.D. 2025-Dec-13 00:00:00.0000, -3.543452212486617E+08, -2.085106524395323E+07, -2.105819308071254E+07,
2461029.500000000, A.D. 2025-Dec-20 00:00:00.0000, -3.511872051547800E+08, -3.183719776763580E+07, -2.019395106380442E+07,
2461036.500000000, A.D. 2025-Dec-27 00:00:00.0000, -3.476422786328362E+08, -4.278820904445785E+07, -1.930746344784186E+07,
2461043.500000000, A.D. 2026-Jan-03 00:00:00.0000, -3.437064115814679E+08, -5.369105626280960E+07, -1.839926604180709E+07,
2461050.500000000, A.D. 2026-Jan-10 00:00:00.0000, -3.393758689313646E+08, -6.453220283726544E+07, -1.746994319384741E+07,
2461057.500000000, A.D. 2026-Jan-17 00:00:00.0000, -3.346472455607536E+08, -7.529760605228373E+07, -1.652013072755875E+07,
2461064.500000000, A.D. 2026-Jan-24 00:00:00.0000, -3.295175041712817E+08, -8.597270607715580E+07, -1.555051898753249E+07,
2461071.500000000, A.D. 2026-Jan-31 00:00:00.0000, -3.239840162292412E+08, -9.654241666750339E+07, -1.456185598600669E+07,
2461078.500000000, A.D. 2026-Feb-07 00:00:00.0000, -3.180446060242302E+08, -1.069911179581208E+08, -1.355495064681016E+07,
2461085.500000000, A.D. 2026-Feb-14 00:00:00.0000, -3.116975976855971E+08, -1.173026517515718E+08, -1.253067615317351E+07,
2461092.500000000, A.D. 2026-Feb-21 00:00:00.0000, -3.049418648352328E+08, -1.274603191581271E+08, -1.148997336551040E+07,
2461099.500000000, A.D. 2026-Feb-28 00:00:00.0000, -2.977768839917645E+08, -1.374468799116090E+08, -1.043385408816017E+07,
2461106.500000000, A.D. 2026-Mar-07 00:00:00.0000, -2.902027937716824E+08, -1.472445558375300E+08, -9.363404123255976E+06,
2461113.500000000, A.D. 2026-Mar-14 00:00:00.0000, -2.822204570501726E+08, -1.568350413812645E+08, -8.279786518954806E+06,
2461120.500000000, A.D. 2026-Mar-21 00:00:00.0000, -2.738315241754752E+08, -1.661995189154122E+08, -7.184244893473729E+06,
2461127.500000000, A.D. 2026-Mar-28 00:00:00.0000, -2.650384990424232E+08, -1.753186784522845E+08, -6.078106513066024E+06,
2461134.500000000, A.D. 2026-Apr-04 00:00:00.0000, -2.558448083319843E+08, -1.841727434188098E+08, -4.962785086277701E+06,
2461141.500000000, A.D. 2026-Apr-11 00:00:00.0000, -2.462548732452097E+08, -1.927415035785584E+08, -3.839783260594532E+06,
2461148.500000000, A.D. 2026-Apr-18 00:00:00.0000, -2.362741830639093E+08, -2.010043558515485E+08, -2.710694760047793E+06,
2461155.500000000, A.D. 2026-Apr-25 00:00:00.0000, -2.259093698558138E+08, -2.089403537610620E+08, -1.577206080986887E+06,
2461162.500000000, A.D. 2026-May-02 00:00:00.0000, -2.151682835112891E+08, -2.165282662623719E+08, -4.410976566194594E+05,
2461169.500000000, A.D. 2026-May-09 00:00:00.0000, -2.040600660454561E+08, -2.237466467053224E+08, 6.957555951729268E+05,
2461176.500000000, A.D. 2026-May-16 00:00:00.0000, -1.925952236765081E+08, -2.305739124134394E+08, 1.831384426026538E+06,
2461183.500000000, A.D. 2026-May-23 00:00:00.0000, -1.807856953405618E+08, -2.369884343846768E+08, 2.963726305239394E+06,
2461190.500000000, A.D. 2026-May-30 00:00:00.0000, -1.686449182561514E+08, -2.429686371961377E+08, 4.090627693892986E+06,
2461197.500000000, A.D. 2026-Jun-06 00:00:00.0000, -1.561878892222000E+08, -2.484931126288223E+08, 5.209847421256751E+06,
2461204.500000000, A.D. 2026-Jun-13 00:00:00.0000, -1.434312162021260E+08, -2.535407468556343E+08, 6.319060955569938E+06,
2461211.500000000, A.D. 2026-Jun-20 00:00:00.0000, -1.303931587861274E+08, -2.580908580549773E+08, 7.415865960870847E+06,
2461218.500000000, A.D. 2026-Jun-27 00:00:00.0000, -1.170936572180785E+08, -2.621233442745231E+08, 8.497789364079803E+06,
2461225.500000000, A.D. 2026-Jul-04 00:00:00.0000, -1.035543479113317E+08, -2.656188414597895E+08, 9.562295948914021E+06,
2461232.500000000, A.D. 2026-Jul-11 00:00:00.0000, -8.979856311151324E+07, -2.685588905404260E+08, 1.060679849961567E+07,
2461239.500000000, A.D. 2026-Jul-18 00:00:00.0000, -7.585131258096138E+07, -2.709261119094459E+08, 1.162866951650855E+07,
2461246.500000000, A.D. 2026-Jul-25 00:00:00.0000, -6.173924538894883E+07, -2.727043852394487E+08, 1.262525449714166E+07,
2461253.500000000, A.D. 2026-Aug-01 00:00:00.0000, -4.749059010131257E+07, -2.738790322041019E+08, 1.359388673265739E+07,
2461260.500000000, A.D. 2026-Aug-08 00:00:00.0000, -3.313507181630694E+07, -2.744369992383191E+08, 1.453190350906765E+07,
2461267.500000000, A.D. 2026-Aug-15 00:00:00.0000, -1.870380469600166E+07, -2.743670366008282E+08, 1.543666357155265E+07,
2461274.500000000, A.D. 2026-Aug-22 00:00:00.0000, -4.229160307193867E+06, -2.736598689287299E+08, 1.630556582584745E+07,
2461281.500000000, A.D. 2026-Aug-29 00:00:00.0000, 1.025538580361081E+07, -2.723083548707792E+08, 1.713606912880515E+07,
$$EOE